BEIDOU-2 IGSO-1 (C06)   
1 36828U 10036A   23151.53329017 -.00000022  00000+0  00000+0 0  9992
2 36828  54.2308 173.0431 0037956 191.8348 182.5476  1.00297054 47051
BEIDOU-2 G4 (C04)       
1 37210U 10057A   23151.56100514 -.00000092  00000+0  00000+0 0  9990
2 37210   0.9793  54.9789 0001649 156.6552  39.1546  1.00272533 46130
BEIDOU-2 IGSO-2 (C07)   
1 37256U 10068A   23151.18688021 -.00000220  00000+0  00000+0 0  9997
2 37256  49.5867 285.4694 0026860 201.0057 296.2734  1.00257318 45637
BEIDOU-2 IGSO-3 (C08)   
1 37384U 11013A   23151.55856062 -.00000202  00000+0  00000+0 0  9993
2 37384  60.7967  50.8314 0022579 179.9264 325.2844  1.00263377 44506
BEIDOU-2 IGSO-4 (C09)   
1 37763U 11038A   23151.57464446  .00000092  00000+0  00000+0 0  9990
2 37763  54.5037 175.5678 0111042 228.4071 143.7967  1.00293248 43490
BEIDOU-2 IGSO-5 (C10)   
1 37948U 11073A   23151.20947395 -.00000161  00000+0  00000+0 0  9991
2 37948  49.7089 285.1283 0088637 218.4865 273.3832  1.00255076 41970
BEIDOU-2 G5 (C05)       
1 38091U 12008A   23151.52826963  .00000076  00000+0  00000+0 0  9996
2 38091   1.4917  66.2588 0003874 283.2289 148.1551  1.00274260 41211
BEIDOU-2 M3 (C11)       
1 38250U 12018A   23151.08320995 -.00000063  00000+0  00000+0 0  9996
2 38250  56.5615 342.0606 0020300 258.6805 101.1183  1.86231267 75214
BEIDOU-2 M4 (C12)       
1 38251U 12018B   23151.55235427 -.00000062  00000+0  00000+0 0  9993
2 38251  56.4734 341.3452 0011215 261.7151  98.1834  1.86234275 75222
BEIDOU-2 M6 (C14)       
1 38775U 12050B   23150.18817808  .00000018  00000+0  00000+0 0  9997
2 38775  55.6247 100.0276 0014808 328.5419  31.3396  1.86231272 72916
BEIDOU-2 G6 (C02)       
1 38953U 12059A   23151.61654582 -.00000156  00000+0  00000+0 0  9995
2 38953   1.7921  82.3782 0011014 315.6152 156.7393  1.00275577 38751
BEIDOU-3S IGSO-1S (C31) 
1 40549U 15019A   23151.39267451 -.00000188  00000+0  00000+0 0  9993
2 40549  51.2766 308.6932 0038238 191.2693 346.7842  1.00278122 29915
BEIDOU-3S M2S (C57)     
1 40748U 15037A   23151.15148822 -.00000064  00000+0  00000+0 0  9991
2 40748  55.7168 340.0123 0004815  46.6960 313.3683  1.86233368 53396
BEIDOU-3S M1S (C58)     
1 40749U 15037B   23150.95173095 -.00000064  00000+0  00000+0 0  9999
2 40749  55.7200 340.0100 0004204   1.7492 358.2765  1.86233035 53393
BEIDOU-3S IGSO-2S (C56) 
1 40938U 15053A   23151.18929920 -.00000154  00000+0  00000+0 0  9999
2 40938  50.9595 271.8608 0047412 193.8618 305.5429  1.00259384 28195
BEIDOU-2 IGSO-6 (C13)   
1 41434U 16021A   23151.20743691 -.00000166  00000+0  00000+0 0  9992
2 41434  58.6087  49.2514 0045734 224.3380 142.8495  1.00258796 26326
BEIDOU-2 G7 (C03)       
1 41586U 16037A   23151.62178549 -.00000334  00000+0  00000+0 0  9994
2 41586   1.6526  66.6660 0009098 353.0563 163.5339  1.00270247 25636
BEIDOU-3 M1 (C19)       
1 43001U 17069A   23151.02854578  .00000014  00000+0  00000+0 0  9995
2 43001  55.7770 100.0462 0011836 299.6457  60.2042  1.86231659 37875
BEIDOU-3 M2 (C20)       
1 43002U 17069B   23149.35419851  .00000021  00000+0  00000+0 0  9998
2 43002  55.7754 100.1376 0009917 318.8338  41.0634  1.86231214 37839
BEIDOU-3 M7 (C27)       
1 43107U 18003A   23151.25349488 -.00000066  00000+0  00000+0 0  9993
2 43107  55.1720 340.7726 0005502  65.9302 294.1522  1.86232510 36623
BEIDOU-3 M8 (C28)       
1 43108U 18003B   23151.19080390 -.00000066  00000+0  00000+0 0  9991
2 43108  55.1650 340.7622 0001938 255.9061 104.0970  1.86230987 36636
BEIDOU-3 M4 (C22)       
1 43207U 18018A   23151.09653154  .00000014  00000+0  00000+0 0  9992
2 43207  55.7359 100.1463 0007168 338.5091  21.4281  1.86231580 36010
BEIDOU-3 M3 (C21)       
1 43208U 18018B   23151.16311838  .00000014  00000+0  00000+0 0  9991
2 43208  55.7354 100.1485 0009731 309.6632  50.2181  1.86231498 36015
BEIDOU-3 M9 (C29)       
1 43245U 18029A   23149.75332884 -.00000068  00000+0  00000+0 0  9990
2 43245  55.0728 338.5664 0000870  59.1877 285.8008  1.86232531 35138
BEIDOU-3 M10 (C30)      
1 43246U 18029B   23150.77984229 -.00000066  00000+0  00000+0 0  9999
2 43246  55.0678 338.5599 0004347  18.7608 341.2773  1.86232953 35141
BEIDOU-2 IGSO-7 (C16)   
1 43539U 18057A   23151.48104968 -.00000025  00000+0  00000+0 0  9993
2 43539  55.1029 172.6723 0061310 231.4580 129.2746  1.00260307 17996
BEIDOU-3 M5 (C23)       
1 43581U 18062A   23151.00059859  .00000045  00000+0  00000+0 0  9993
2 43581  54.1910 220.2020 0004598 269.7079  90.3144  1.86231988 32908
BEIDOU-3 M6 (C24)       
1 43582U 18062B   23151.40229021  .00000051  00000+0  00000+0 0  9995
2 43582  54.1907 220.1778 0004104 359.6910   0.3860  1.86229555 32914
BEIDOU-3 M12 (C26)      
1 43602U 18067A   23151.33959188  .00000053  00000+0  00000+0 0  9991
2 43602  54.2772 218.8260 0006547  12.8811 347.2142  1.86231786 32396
BEIDOU-3 M11 (C25)      
1 43603U 18067B   23151.47338012  .00000055  00000+0  00000+0 0  9996
2 43603  54.2743 218.7873 0003648 357.3561   2.7212  1.86231661 32429
BEIDOU-3 M13 (C32)      
1 43622U 18072A   23150.35741725  .00000016  00000+0  00000+0 0  9995
2 43622  55.7044  99.7137 0008366 297.5662  62.3186  1.86231618 31916
BEIDOU-3 M14 (C33)      
1 43623U 18072B   23151.29677403  .00000012  00000+0  00000+0 0  9997
2 43623  55.7069  99.6748 0006317 319.0457  40.8736  1.86231652 31928
BEIDOU-3 M16 (C35)      
1 43647U 18078A   23150.91998727 -.00000066  00000+0  00000+0 0  9992
2 43647  54.9665 338.6564 0007760  18.6884 341.3621  1.86227349 31423
BEIDOU-3 M15 (C34)      
1 43648U 18078B   23151.59013429 -.00000065  00000+0  00000+0 0  9994
2 43648  54.9619 338.6378 0004951  33.7333 326.3195  1.86232312 31450
BEIDOU-3 G1 (C59)       
1 43683U 18085A   23151.56716059 -.00000258  00000+0  00000+0 0  9991
2 43683   1.3140 131.5616 0004587 320.2007 141.2306  1.00267712 16905
BEIDOU-3 M17 (C36)      
1 43706U 18093A   23151.20202596  .00000048  00000+0  00000+0 0  9999
2 43706  54.2733 220.1054 0009777 274.9464  85.0183  1.86232074 30816
BEIDOU-3 M18 (C37)      
1 43707U 18093B   23151.06684270  .00000046  00000+0  00000+0 0  9995
2 43707  54.2741 220.1014 0007773 300.5768  59.4221  1.86229851 30805
BEIDOU-3 IGSO-1 (C38)   
1 44204U 19023A   23151.62567545 -.00000235  00000+0  00000+0 0  9990
2 44204  57.0750  49.2565 0018579 203.0290 339.4676  1.00257899 15181
BEIDOU-2 G8 (C01)       
1 44231U 19027A   23151.55222873 -.00000227  00000+0  00000+0 0  9999
2 44231   1.7189  81.2116 0004412 122.9148  28.0163  1.00271055 14926
BEIDOU-3 IGSO-2 (C39)   
1 44337U 19035A   23151.46671495 -.00000028  00000+0  00000+0 0  9992
2 44337  55.1452 168.6356 0030703 202.6256 162.0511  1.00250922 14514
BEIDOU-3 M24 (C46)      
1 44542U 19061A   23150.06538019  .00000032  00000+0  00000+0 0  9992
2 44542  54.5007 220.3543 0007389 338.8285  21.2116  1.86231278 25047
BEIDOU-3 M23 (C45)      
1 44543U 19061B   23151.37959420  .00000050  00000+0  00000+0 0  9991
2 44543  54.4988 220.2794 0004967 319.6580 113.2659  1.86231698 25079
BEIDOU-3 IGSO-3 (C40)   
1 44709U 19073A   23149.80034853 -.00000200  00000+0  00000+0 0  9995
2 44709  56.6987 292.7716 0031995 178.4364 181.5094  1.00257420 13284
BEIDOU-3 M22 (C44)      
1 44793U 19078A   23151.52122829 -.00000065  00000+0  00000+0 0  9995
2 44793  54.8145 338.6147 0006796  26.8137 333.2428  1.86232251 23924
BEIDOU-3 M21 (C43)      
1 44794U 19078B   23151.11508226 -.00000066  00000+0  00000+0 0  9991
2 44794  54.7890 338.6130 0004632  26.4913 333.5541  1.86232772 23925
BEIDOU-3 M19 (C41)      
1 44864U 19090A   23151.52049101  .00000011  00000+0  00000+0 0  9999
2 44864  55.6396  99.8673 0018704 278.7539 187.0993  1.86231867 23515
BEIDOU-3 M20 (C42)      
1 44865U 19090B   23150.41931035  .00000017  00000+0  00000+0 0  9999
2 44865  55.6408  99.9367 0016934 291.5986 245.7707  1.86231857 23472
BEIDOU-3 G2 (C60)       
1 45344U 20017A   23151.56997164 -.00000123  00000+0  00000+0 0  9994
2 45344   2.0077  11.0839 0003048  90.1903  72.7604  1.00271067 12101
BEIDOU-3 G3 (C61)       
1 45807U 20040A   23151.53521687 -.00000335  00000+0  00000+0 0  9999
2 45807   0.7346 327.3327 0006141 320.2627 264.4593  1.00271348 10917
BEIDOU-3 G4             
1 56564U 23066A   23150.58938247 -.00000095  00000+0  00000+0 0  9993
2 56564   3.0836 289.3900 0006251 182.1045 148.5245  1.00273324   230
